EUTELSAT 16A            
1 37836U 11057A   25199.74133603  .00000109  00000+0  00000+0 0  9992
2 37836   0.0632   9.0984 0005338 108.7808 101.7646  1.00271848  3987
EUTELSAT 21B            
1 38992U 12062B   25199.74425279  .00000136  00000+0  00000+0 0  9996
2 38992   0.0657   9.0148 0002969 109.5110 107.7681  1.00272427 46483
EUTELSAT 70B            
1 39020U 12069A   25199.88128186 -.00000038  00000+0  00000+0 0  9990
2 39020   0.0616  11.7976 0003550 105.6950 207.1709  1.00271493 46169
EUTELSAT 7B             
1 39163U 13022A   25199.55821821  .00000054  00000+0  00000+0 0  9995
2 39163   0.0709 338.9741 0003238  68.2868  97.2987  1.00269512 44612
EXPRESS-AT1             
1 39612U 14010A   25199.50669637  .00000084  00000+0  00000+0 0  9995
2 39612   0.0139 355.2968 0000261   8.5716 171.0930  1.00271874 41477
EUTELSAT 3B             
1 39773U 14030A   25199.55743821  .00000026  00000+0  00000+0 0  9994
2 39773   0.0602  10.1684 0003922 118.1293  12.0646  1.00271230 40728
